start=new Date('2021-09-20T00:00:00.000Z').valueOf();
sats=[{"EPHEMERIS_TYPE":"0","REV_AT_EPOCH":"3765","CLASSIFICATION_TYPE":"U","TLE_LINE1":"1 47378U 21005AF  21262.89769335 -.00000471  00000-0 -12721-4 0  9991","COUNTRY_CODE":"US","MEAN_ANOMALY":"289.3139","MEAN_MOTION_DDOT":"0.0000000000000","GP_ID":"185056081","DECAY_DATE":null,"NORAD_CAT_ID":"47378","OBJECT_TYPE":"PAYLOAD","RCS_SIZE":"LARGE","TLE_LINE2":"2 47378  53.0563 147.0066 0001936  70.8060 289.3139 15.06402383 37655","OBJECT_ID":"2021-005AF","PERIAPSIS":"545.866","SITE":"AFETR","RA_OF_ASC_NODE":"147.0066","SEMIMAJOR_AXIS":"6925.341","BSTAR":"-0.00001272100000","OBJECT_NAME":"STARLINK-2098","MEAN_MOTION":"15.06402383","INCLINATION":"53.0563","MEAN_ELEMENT_THEORY":"SGP4","ECCENTRICITY":"0.00019360","ARG_OF_PERICENTER":"70.8060","CENTER_NAME":"EARTH","ELEMENT_SET_NO":"999","APOAPSIS":"548.547","REF_FRAME":"TEME","MEAN_MOTION_DOT":"-0.00000471","FILE":"3120378","LAUNCH_DATE":"2021-01-20","PERIOD":"95.592","EPOCH":"2021-09-19T21:32:40.705440","TIME_SYSTEM":"UTC"},{"TLE_LINE2":"2 47379  53.0543 146.6805 0002254  66.9648 293.1578 15.06398545 37667","RCS_SIZE":"LARGE","OBJECT_ID":"2021-005AG","PERIAPSIS":"545.657","SITE":"AFETR","SEMIMAJOR_AXIS":"6925.353","BSTAR":"0.00004730100000","RA_OF_ASC_NODE":"146.6805","OBJECT_NAME":"STARLINK-2099","MEAN_ANOMALY":"293.1578","GP_ID":"185056328","MEAN_MOTION_DDOT":"0.0000000000000","DECAY_DATE":null,"OBJECT_TYPE":"PAYLOAD","NORAD_CAT_ID":"47379","TLE_LINE1":"1 47379U 21005AG  21262.97141396  .00000423  00000-0  47301-4 0  9999","COUNTRY_CODE":"US","EPHEMERIS_TYPE":"0","REV_AT_EPOCH":"3766","CLASSIFICATION_TYPE":"U","PERIOD":"95.592","EPOCH":"2021-09-19T23:18:50.166144","TIME_SYSTEM":"UTC","APOAPSIS":"548.779","REF_FRAME":"TEME","MEAN_MOTION_DOT":"0.00000423","FILE":"3120378","LAUNCH_DATE":"2021-01-20","CENTER_NAME":"EARTH","ARG_OF_PERICENTER":"66.9648","ELEMENT_SET_NO":"999","MEAN_MOTION":"15.06398545","INCLINATION":"53.0543","MEAN_ELEMENT_THEORY":"SGP4","ECCENTRICITY":"0.00022540"},{"FILE":"3120378","LAUNCH_DATE":"2021-01-20","APOAPSIS":"548.770","REF_FRAME":"TEME","MEAN_MOTION_DOT":"0.00001482","PERIOD":"95.592","EPOCH":"2021-09-19T20:48:53.185536","TIME_SYSTEM":"UTC","INCLINATION":"53.0567","MEAN_ELEMENT_THEORY":"SGP4","ECCENTRICITY":"0.00022420","MEAN_MOTION":"15.06398778","ELEMENT_SET_NO":"999","CENTER_NAME":"EARTH","ARG_OF_PERICENTER":"64.3037","OBJECT_TYPE":"PAYLOAD","NORAD_CAT_ID":"47380","MEAN_ANOMALY":"295.8183","MEAN_MOTION_DDOT":"0.0000000000000","GP_ID":"185057577","DECAY_DATE":null,"OBJECT_NAME":"STARLINK-2100","RCS_SIZE":"LARGE","TLE_LINE2":"2 47380  53.0567 157.1584 0002242  64.3037 295.8183 15.06398778 37510","PERIAPSIS":"545.665","OBJECT_ID":"2021-005AH","BSTAR":"0.00011837000000","SITE":"AFETR","SEMIMAJOR_AXIS":"6925.352","RA_OF_ASC_NODE":"157.1584","CLASSIFICATION_TYPE":"U","EPHEMERIS_TYPE":"0","REV_AT_EPOCH":"3751","COUNTRY_CODE":"US","TLE_LINE1":"1 47380U 21005AH  21262.86728224  .00001482  00000-0  11837-3 0  9990"},{"COUNTRY_CODE":"US","TLE_LINE1":"1 47381U 21005AJ  21262.87509126  .00000566  00000-0  56885-4 0  9995","CLASSIFICATION_TYPE":"U","REV_AT_EPOCH":"3744","EPHEMERIS_TYPE":"0","OBJECT_NAME":"STARLINK-2101","SITE":"AFETR","SEMIMAJOR_AXIS":"6925.357","RA_OF_ASC_NODE":"162.1200","BSTAR":"0.00005688500000","OBJECT_ID":"2021-005AJ","PERIAPSIS":"545.697","TLE_LINE2":"2 47381  53.0571 162.1200 0002201  55.6118 304.5079 15.06397388 37445","RCS_SIZE":"LARGE","NORAD_CAT_ID":"47381","OBJECT_TYPE":"PAYLOAD","DECAY_DATE":null,"MEAN_MOTION_DDOT":"0.0000000000000","GP_ID":"185057330","MEAN_ANOMALY":"304.5079","ELEMENT_SET_NO":"999","CENTER_NAME":"EARTH","ARG_OF_PERICENTER":"55.6118","ECCENTRICITY":"0.00022010","MEAN_ELEMENT_THEORY":"SGP4","INCLINATION":"53.0571","MEAN_MOTION":"15.06397388","TIME_SYSTEM":"UTC","EPOCH":"2021-09-19T21:00:07.884864","PERIOD":"95.592","LAUNCH_DATE":"2021-01-20","FILE":"3120378","MEAN_MOTION_DOT":"0.00000566","REF_FRAME":"TEME","APOAPSIS":"548.746"},{"MEAN_MOTION":"15.06393619","ECCENTRICITY":"0.00021600","INCLINATION":"53.0528","MEAN_ELEMENT_THEORY":"SGP4","CENTER_NAME":"EARTH","ARG_OF_PERICENTER":"67.7673","ELEMENT_SET_NO":"999","REF_FRAME":"TEME","MEAN_MOTION_DOT":"0.00000428","APOAPSIS":"548.729","LAUNCH_DATE":"2021-01-20","FILE":"3120378","TIME_SYSTEM":"UTC","PERIOD":"95.593","EPOCH":"2021-09-19T20:38:16.266336","REV_AT_EPOCH":"3750","EPHEMERIS_TYPE":"0","CLASSIFICATION_TYPE":"U","TLE_LINE1":"1 47382U 21005AK  21262.85991049  .00000428  00000-0  47636-4 0  9994","COUNTRY_CODE":"US","GP_ID":"185056581","MEAN_MOTION_DDOT":"0.0000000000000","DECAY_DATE":null,"MEAN_ANOMALY":"292.3545","OBJECT_TYPE":"PAYLOAD","NORAD_CAT_ID":"47382","SITE":"AFETR","BSTAR":"0.00004763600000","SEMIMAJOR_AXIS":"6925.368","RA_OF_ASC_NODE":"157.1892","RCS_SIZE":"LARGE","TLE_LINE2":"2 47382  53.0528 157.1892 0002160  67.7673 292.3545 15.06393619 37505","OBJECT_ID":"2021-005AK","PERIAPSIS":"545.737","OBJECT_NAME":"STARLINK-2102"},{"ARG_OF_PERICENTER":"71.2961","CENTER_NAME":"EARTH","ELEMENT_SET_NO":"999","MEAN_MOTION":"15.06401202","MEAN_ELEMENT_THEORY":"SGP4","INCLINATION":"53.0545","ECCENTRICITY":"0.00021010","EPOCH":"2021-09-19T22:40:19.132032","PERIOD":"95.592","TIME_SYSTEM":"UTC","APOAPSIS":"548.665","MEAN_MOTION_DOT":"0.00000691","REF_FRAME":"TEME","FILE":"3120378","LAUNCH_DATE":"2021-01-20","TLE_LINE1":"1 47383U 21005AL  21262.94466588  .00000691  00000-0  65320-4 0  9992","COUNTRY_CODE":"US","EPHEMERIS_TYPE":"0","REV_AT_EPOCH":"3766","CLASSIFICATION_TYPE":"U","OBJECT_ID":"2021-005AL","PERIAPSIS":"545.755","RCS_SIZE":"LARGE","TLE_LINE2":"2 47383  53.0545 146.8091 0002101  71.2961 288.8256 15.06401202 37660","SITE":"AFETR","SEMIMAJOR_AXIS":"6925.345","BSTAR":"0.00006532000000","RA_OF_ASC_NODE":"146.8091","OBJECT_NAME":"STARLINK-2103","MEAN_ANOMALY":"288.8256","DECAY_DATE":null,"GP_ID":"185056828","MEAN_MOTION_DDOT":"0.0000000000000","OBJECT_TYPE":"PAYLOAD","NORAD_CAT_ID":"47383"},{"MEAN_MOTION":"15.06394284","ECCENTRICITY":"0.00020040","INCLINATION":"53.0547","MEAN_ELEMENT_THEORY":"SGP4","ARG_OF_PERICENTER":"63.5836","CENTER_NAME":"EARTH","ELEMENT_SET_NO":"999","REF_FRAME":"TEME","MEAN_MOTION_DOT":"0.00001036","APOAPSIS":"548.619","LAUNCH_DATE":"2021-01-20","FILE":"3120378","TIME_SYSTEM":"UTC","PERIOD":"95.593","EPOCH":"2021-09-19T21:19:22.278720","REV_AT_EPOCH":"3751","EPHEMERIS_TYPE":"0","CLASSIFICATION_TYPE":"U","TLE_LINE1":"1 47384U 21005AM  21262.88845230  .00001036  00000-0  88477-4 0  9993","COUNTRY_CODE":"US","MEAN_MOTION_DDOT":"0.0000000000000","GP_ID":"185057078","DECAY_DATE":null,"MEAN_ANOMALY":"296.5359","NORAD_CAT_ID":"47384","OBJECT_TYPE":"PAYLOAD","SEMIMAJOR_AXIS":"6925.366","SITE":"AFETR","BSTAR":"0.00008847700000","RA_OF_ASC_NODE":"157.0637","TLE_LINE2":"2 47384  53.0547 157.0637 0002004  63.5836 296.5359 15.06394284 37515","RCS_SIZE":"LARGE","PERIAPSIS":"545.843","OBJECT_ID":"2021-005AM","OBJECT_NAME":"STARLINK-2104"},{"TIME_SYSTEM":"UTC","PERIOD":"95.593","EPOCH":"2021-09-19T21:47:16.431648","REF_FRAME":"TEME","MEAN_MOTION_DOT":"0.00000049","APOAPSIS":"548.536","LAUNCH_DATE":"2021-01-20","FILE":"3120378","CENTER_NAME":"EARTH","ARG_OF_PERICENTER":"75.6775","ELEMENT_SET_NO":"999","MEAN_MOTION":"15.06394189","ECCENTRICITY":"0.00018840","INCLINATION":"53.0544","MEAN_ELEMENT_THEORY":"SGP4","SEMIMAJOR_AXIS":"6925.366","SITE":"AFETR","RA_OF_ASC_NODE":"156.9776","BSTAR":"0.00002219600000","RCS_SIZE":"LARGE","TLE_LINE2":"2 47385  53.0544 156.9776 0001884  75.6775 284.4423 15.06394189 37518","PERIAPSIS":"545.927","OBJECT_ID":"2021-005AN","OBJECT_NAME":"STARLINK-2105","GP_ID":"185057830","MEAN_MOTION_DDOT":"0.0000000000000","DECAY_DATE":null,"MEAN_ANOMALY":"284.4423","NORAD_CAT_ID":"47385","OBJECT_TYPE":"PAYLOAD","TLE_LINE1":"1 47385U 21005AN  21262.90782907  .00000049  00000-0  22196-4 0  9997","COUNTRY_CODE":"US","REV_AT_EPOCH":"3751","EPHEMERIS_TYPE":"0","CLASSIFICATION_TYPE":"U"},{"ELEMENT_SET_NO":"999","CENTER_NAME":"EARTH","ARG_OF_PERICENTER":"64.9782","INCLINATION":"53.0559","MEAN_ELEMENT_THEORY":"SGP4","ECCENTRICITY":"0.00022100","MEAN_MOTION":"15.06392340","PERIOD":"95.593","EPOCH":"2021-09-19T20:54:11.909088","TIME_SYSTEM":"UTC","FILE":"3120378","LAUNCH_DATE":"2021-01-20","APOAPSIS":"548.768","REF_FRAME":"TEME","MEAN_MOTION_DOT":"0.00000088","COUNTRY_CODE":"US","TLE_LINE1":"1 47386U 21005AP  21262.87097117  .00000088  00000-0  24822-4 0  9997","CLASSIFICATION_TYPE":"U","EPHEMERIS_TYPE":"0","REV_AT_EPOCH":"3751","OBJECT_NAME":"STARLINK-2106","RCS_SIZE":"LARGE","TLE_LINE2":"2 47386  53.0559 157.1310 0002210  64.9782 295.1436 15.06392340 37515","PERIAPSIS":"545.707","OBJECT_ID":"2021-005AP","SITE":"AFETR","BSTAR":"0.00002482200000","SEMIMAJOR_AXIS":"6925.372","RA_OF_ASC_NODE":"157.1310","OBJECT_TYPE":"PAYLOAD","NORAD_CAT_ID":"47386","MEAN_ANOMALY":"295.1436","GP_ID":"185056082","MEAN_MOTION_DDOT":"0.0000000000000","DECAY_DATE":null},{"APOAPSIS":"548.520","MEAN_MOTION_DOT":"0.00001460","REF_FRAME":"TEME","FILE":"3120015","LAUNCH_DATE":"2021-01-20","EPOCH":"2021-09-19T12:36:36.308736","PERIOD":"95.592","TIME_SYSTEM":"UTC","MEAN_MOTION":"15.06394904","MEAN_ELEMENT_THEORY":"SGP4","INCLINATION":"53.0555","ECCENTRICITY":"0.00018640","CENTER_NAME":"EARTH","ARG_OF_PERICENTER":"67.6403","ELEMENT_SET_NO":"999","MEAN_ANOMALY":"292.4783","DECAY_DATE":null,"GP_ID":"185025788","MEAN_MOTION_DDOT":"0.0000000000000","NORAD_CAT_ID":"47387","OBJECT_TYPE":"PAYLOAD","OBJECT_ID":"2021-005AQ","PERIAPSIS":"545.938","RCS_SIZE":"LARGE","TLE_LINE2":"2 47387  53.0555 188.6867 0001864  67.6403 292.4783 15.06394904 37032","RA_OF_ASC_NODE":"188.6867","SITE":"AFETR","SEMIMAJOR_AXIS":"6925.364","BSTAR":"0.00011690000000","OBJECT_NAME":"STARLINK-2108","EPHEMERIS_TYPE":"0","REV_AT_EPOCH":"3703","CLASSIFICATION_TYPE":"U","TLE_LINE1":"1 47387U 21005AQ  21262.52542024  .00001460  00000-0  11690-3 0  9995","COUNTRY_CODE":"US"}];
